start=new Date('2023-02-18T00:00:00.000Z').valueOf();
sats=[{"RCS_SIZE":"LARGE","COUNTRY_CODE":"US","TLE_LINE2":"2 45751  53.0518 186.3006 0001473  77.0946 283.0208 15.06396667148283","ECCENTRICITY":"0.00014730","MEAN_MOTION_DDOT":"0.0000000000000","DECAY_DATE":null,"GP_ID":"225833993","MEAN_MOTION":"15.06396667","FILE":"3804075","TIME_SYSTEM":"UTC","CENTER_NAME":"EARTH","CLASSIFICATION_TYPE":"U","ARG_OF_PERICENTER":"77.0946","MEAN_ELEMENT_THEORY":"SGP4","SEMIMAJOR_AXIS":"6925.359","INCLINATION":"53.0518","OBJECT_ID":"2020-038X","MEAN_MOTION_DOT":"-0.00002299","APOAPSIS":"548.244","PERIAPSIS":"546.204","OBJECT_NAME":"STARLINK-1464","EPHEMERIS_TYPE":"0","NORAD_CAT_ID":"45751","BSTAR":"-0.00013553000000","RA_OF_ASC_NODE":"186.3006","PERIOD":"95.592","LAUNCH_DATE":"2020-06-13","EPOCH":"2023-02-17T17:50:39.951744","OBJECT_TYPE":"PAYLOAD","ELEMENT_SET_NO":"999","REF_FRAME":"TEME","REV_AT_EPOCH":"14828","SITE":"AFETR","TLE_LINE1":"1 45751U 20038X   23048.74351796 -.00002299  00000-0 -13553-3 0  9998","MEAN_ANOMALY":"283.0208"},{"ARG_OF_PERICENTER":"88.9215","CLASSIFICATION_TYPE":"U","SEMIMAJOR_AXIS":"6925.357","MEAN_ELEMENT_THEORY":"SGP4","OBJECT_ID":"2020-038Z","INCLINATION":"53.0536","MEAN_MOTION_DOT":"-0.00001244","ECCENTRICITY":"0.00015380","MEAN_MOTION_DDOT":"0.0000000000000","TLE_LINE2":"2 45753  53.0536 187.7300 0001538  88.9215 271.1950 15.06397157148231","RCS_SIZE":"LARGE","COUNTRY_CODE":"US","DECAY_DATE":null,"GP_ID":"225776733","FILE":"3802730","MEAN_MOTION":"15.06397157","CENTER_NAME":"EARTH","TIME_SYSTEM":"UTC","LAUNCH_DATE":"2020-06-13","PERIOD":"95.592","ELEMENT_SET_NO":"999","EPOCH":"2023-02-17T10:08:53.446848","OBJECT_TYPE":"PAYLOAD","TLE_LINE1":"1 45753U 20038Z   23048.42284082 -.00001244  00000-0 -64664-4 0  9997","SITE":"AFETR","REF_FRAME":"TEME","REV_AT_EPOCH":"14823","MEAN_ANOMALY":"271.1950","PERIAPSIS":"546.157","APOAPSIS":"548.287","NORAD_CAT_ID":"45753","EPHEMERIS_TYPE":"0","OBJECT_NAME":"STARLINK-1476","RA_OF_ASC_NODE":"187.7300","BSTAR":"-0.00006466400000"},{"PERIAPSIS":"546.674","APOAPSIS":"547.699","BSTAR":"0.00159380000000","RA_OF_ASC_NODE":"185.6328","EPHEMERIS_TYPE":"0","OBJECT_NAME":"STARLINK-1477","NORAD_CAT_ID":"45754","ELEMENT_SET_NO":"999","EPOCH":"2023-02-17T21:22:58.687392","OBJECT_TYPE":"PAYLOAD","PERIOD":"95.592","LAUNCH_DATE":"2020-06-13","MEAN_ANOMALY":"269.3643","REF_FRAME":"TEME","REV_AT_EPOCH":"14830","TLE_LINE1":"1 45754U 20038AA  23048.89095703  .00023544  00000-0  15938-2 0  9992","SITE":"AFETR","DECAY_DATE":null,"GP_ID":"225832494","RCS_SIZE":"LARGE","COUNTRY_CODE":"US","MEAN_MOTION_DDOT":"0.0000000000000","ECCENTRICITY":"0.00007400","TLE_LINE2":"2 45754  53.0513 185.6328 0000740  90.7431 269.3643 15.06408926148302","CENTER_NAME":"EARTH","TIME_SYSTEM":"UTC","MEAN_MOTION":"15.06408926","FILE":"3804075","SEMIMAJOR_AXIS":"6925.321","MEAN_ELEMENT_THEORY":"SGP4","CLASSIFICATION_TYPE":"U","ARG_OF_PERICENTER":"90.7431","MEAN_MOTION_DOT":"0.00023544","OBJECT_ID":"2020-038AA","INCLINATION":"53.0513"},{"NORAD_CAT_ID":"45755","EPHEMERIS_TYPE":"0","OBJECT_NAME":"STARLINK-1478","RA_OF_ASC_NODE":"185.8473","BSTAR":"0.00049798000000","PERIAPSIS":"545.724","APOAPSIS":"548.778","TLE_LINE1":"1 45755U 20038AB  23048.84303370  .00007141  00000-0  49798-3 0  9997","SITE":"AFETR","REF_FRAME":"TEME","REV_AT_EPOCH":"14828","MEAN_ANOMALY":"277.9612","LAUNCH_DATE":"2020-06-13","PERIOD":"95.593","ELEMENT_SET_NO":"999","OBJECT_TYPE":"PAYLOAD","EPOCH":"2023-02-17T20:13:58.111680","FILE":"3804075","MEAN_MOTION":"15.06387808","CENTER_NAME":"EARTH","TIME_SYSTEM":"UTC","MEAN_MOTION_DDOT":"0.0000000000000","ECCENTRICITY":"0.00022050","TLE_LINE2":"2 45755  53.0489 185.8473 0002205  82.1627 277.9612 15.06387808148281","RCS_SIZE":"LARGE","COUNTRY_CODE":"US","GP_ID":"225833244","DECAY_DATE":null,"OBJECT_ID":"2020-038AB","INCLINATION":"53.0489","MEAN_MOTION_DOT":"0.00007141","ARG_OF_PERICENTER":"82.1627","CLASSIFICATION_TYPE":"U","MEAN_ELEMENT_THEORY":"SGP4","SEMIMAJOR_AXIS":"6925.386"},{"DECAY_DATE":null,"GP_ID":"225833496","RCS_SIZE":"LARGE","COUNTRY_CODE":"US","MEAN_MOTION_DDOT":"0.0000000000000","ECCENTRICITY":"0.00014240","TLE_LINE2":"2 45756  53.0504 186.7525 0001424  90.9251 269.1901 15.06398978148251","CENTER_NAME":"EARTH","TIME_SYSTEM":"UTC","MEAN_MOTION":"15.06398978","FILE":"3804075","MEAN_ELEMENT_THEORY":"SGP4","SEMIMAJOR_AXIS":"6925.352","CLASSIFICATION_TYPE":"U","ARG_OF_PERICENTER":"90.9251","MEAN_MOTION_DOT":"0.00001633","INCLINATION":"53.0504","OBJECT_ID":"2020-038AC","PERIAPSIS":"546.231","APOAPSIS":"548.203","BSTAR":"0.00012850000000","RA_OF_ASC_NODE":"186.7525","EPHEMERIS_TYPE":"0","OBJECT_NAME":"STARLINK-1484","NORAD_CAT_ID":"45756","ELEMENT_SET_NO":"999","EPOCH":"2023-02-17T15:20:41.416800","OBJECT_TYPE":"PAYLOAD","PERIOD":"95.592","LAUNCH_DATE":"2020-06-13","MEAN_ANOMALY":"269.1901","REF_FRAME":"TEME","REV_AT_EPOCH":"14825","TLE_LINE1":"1 45756U 20038AC  23048.63936825  .00001633  00000-0  12850-3 0  9991","SITE":"AFETR"},{"APOAPSIS":"541.239","PERIAPSIS":"538.721","BSTAR":"0.00190340000000","RA_OF_ASC_NODE":"187.3618","OBJECT_NAME":"STARLINK-1486","EPHEMERIS_TYPE":"0","NORAD_CAT_ID":"45757","EPOCH":"2023-02-17T10:09:17.242272","OBJECT_TYPE":"PAYLOAD","ELEMENT_SET_NO":"999","PERIOD":"95.442","LAUNCH_DATE":"2020-06-13","MEAN_ANOMALY":"210.8362","REV_AT_EPOCH":"14822","REF_FRAME":"TEME","SITE":"AFETR","TLE_LINE1":"1 45757U 20038AD  23048.42311623  .00030074  00000-0  19034-2 0  9993","GP_ID":"225777231","DECAY_DATE":null,"COUNTRY_CODE":"US","RCS_SIZE":"LARGE","TLE_LINE2":"2 45757  53.0521 187.3618 0001820 149.2735 210.8362 15.08763284148225","MEAN_MOTION_DDOT":"0.0000000000000","ECCENTRICITY":"0.00018200","TIME_SYSTEM":"UTC","CENTER_NAME":"EARTH","MEAN_MOTION":"15.08763284","FILE":"3802730","SEMIMAJOR_AXIS":"6918.115","MEAN_ELEMENT_THEORY":"SGP4","CLASSIFICATION_TYPE":"U","ARG_OF_PERICENTER":"149.2735","MEAN_MOTION_DOT":"0.00030074","OBJECT_ID":"2020-038AD","INCLINATION":"53.0521"},{"MEAN_ANOMALY":"172.9351","REV_AT_EPOCH":"14826","REF_FRAME":"TEME","TLE_LINE1":"1 45758U 20038AE  23048.66413088  .00034002  00000-0  21153-2 0  9998","SITE":"AFETR","ELEMENT_SET_NO":"999","EPOCH":"2023-02-17T15:56:20.908032","OBJECT_TYPE":"PAYLOAD","PERIOD":"95.406","LAUNCH_DATE":"2020-06-13","BSTAR":"0.00211530000000","RA_OF_ASC_NODE":"186.0991","EPHEMERIS_TYPE":"0","OBJECT_NAME":"STARLINK-1487","NORAD_CAT_ID":"45758","PERIAPSIS":"536.830","APOAPSIS":"539.650","MEAN_MOTION_DOT":"0.00034002","INCLINATION":"53.0539","OBJECT_ID":"2020-038AE","SEMIMAJOR_AXIS":"6916.375","MEAN_ELEMENT_THEORY":"SGP4","CLASSIFICATION_TYPE":"U","ARG_OF_PERICENTER":"187.1610","CENTER_NAME":"EARTH","TIME_SYSTEM":"UTC","MEAN_MOTION":"15.09332714","FILE":"3804075","DECAY_DATE":null,"GP_ID":"225832994","RCS_SIZE":"LARGE","COUNTRY_CODE":"US","MEAN_MOTION_DDOT":"0.0000000000000","ECCENTRICITY":"0.00020390","TLE_LINE2":"2 45758  53.0539 186.0991 0002039 187.1610 172.9351 15.09332714148262"},{"ELEMENT_SET_NO":"999","OBJECT_TYPE":"PAYLOAD","EPOCH":"2023-02-17T21:33:35.404416","PERIOD":"95.592","LAUNCH_DATE":"2020-06-13","MEAN_ANOMALY":"280.1199","REF_FRAME":"TEME","REV_AT_EPOCH":"14829","TLE_LINE1":"1 45759U 20038AF  23048.89832644  .00005276  00000-0  37277-3 0  9993","SITE":"AFETR","PERIAPSIS":"546.407","APOAPSIS":"547.977","BSTAR":"0.00037277000000","RA_OF_ASC_NODE":"185.6009","EPHEMERIS_TYPE":"0","OBJECT_NAME":"STARLINK-1493","NORAD_CAT_ID":"45759","MEAN_ELEMENT_THEORY":"SGP4","SEMIMAJOR_AXIS":"6925.327","CLASSIFICATION_TYPE":"U","ARG_OF_PERICENTER":"79.9918","MEAN_MOTION_DOT":"0.00005276","OBJECT_ID":"2020-038AF","INCLINATION":"53.0517","DECAY_DATE":null,"GP_ID":"225832745","RCS_SIZE":"LARGE","COUNTRY_CODE":"US","ECCENTRICITY":"0.00011340","MEAN_MOTION_DDOT":"0.0000000000000","TLE_LINE2":"2 45759  53.0517 185.6009 0001134  79.9918 280.1199 15.06407085148294","CENTER_NAME":"EARTH","TIME_SYSTEM":"UTC","MEAN_MOTION":"15.06407085","FILE":"3804075"},{"OBJECT_ID":"2020-038AG","INCLINATION":"53.0527","MEAN_MOTION_DOT":"0.00025606","CLASSIFICATION_TYPE":"U","ARG_OF_PERICENTER":"78.5191","SEMIMAJOR_AXIS":"6925.289","MEAN_ELEMENT_THEORY":"SGP4","MEAN_MOTION":"15.06419338","FILE":"3804075","TIME_SYSTEM":"UTC","CENTER_NAME":"EARTH","COUNTRY_CODE":"US","RCS_SIZE":"LARGE","TLE_LINE2":"2 45760  53.0527 186.7718 0001208  78.5191 281.5934 15.06419338148269","MEAN_MOTION_DDOT":"0.0000000000000","ECCENTRICITY":"0.00012080","GP_ID":"225833994","DECAY_DATE":null,"REF_FRAME":"TEME","REV_AT_EPOCH":"14826","SITE":"AFETR","TLE_LINE1":"1 45760U 20038AG  23048.63664173  .00025606  00000-0  17308-2 0  9998","MEAN_ANOMALY":"281.5934","PERIOD":"95.591","LAUNCH_DATE":"2020-06-13","OBJECT_TYPE":"PAYLOAD","EPOCH":"2023-02-17T15:16:45.845472","ELEMENT_SET_NO":"999","OBJECT_NAME":"STARLINK-1494","EPHEMERIS_TYPE":"0","NORAD_CAT_ID":"45760","BSTAR":"0.00173080000000","RA_OF_ASC_NODE":"186.7718","APOAPSIS":"547.991","PERIAPSIS":"546.318"},{"INCLINATION":"53.0539","OBJECT_ID":"2020-038AJ","MEAN_MOTION_DOT":"0.00044474","CLASSIFICATION_TYPE":"U","ARG_OF_PERICENTER":"355.0311","MEAN_ELEMENT_THEORY":"SGP4","SEMIMAJOR_AXIS":"6893.347","MEAN_MOTION":"15.16902175","FILE":"3804075","TIME_SYSTEM":"UTC","CENTER_NAME":"EARTH","COUNTRY_CODE":"US","RCS_SIZE":"LARGE","TLE_LINE2":"2 45762  53.0539 176.9965 0000769 355.0311   5.0674 15.16902175148433","MEAN_MOTION_DDOT":"0.0000000000000","ECCENTRICITY":"0.00007690","DECAY_DATE":null,"GP_ID":"225833747","REF_FRAME":"TEME","REV_AT_EPOCH":"14843","SITE":"AFETR","TLE_LINE1":"1 45762U 20038AJ  23048.92171377  .00044474  00000-0  22318-2 0  9992","MEAN_ANOMALY":"5.0674","PERIOD":"94.930","LAUNCH_DATE":"2020-06-13","OBJECT_TYPE":"PAYLOAD","EPOCH":"2023-02-17T22:07:16.069728","ELEMENT_SET_NO":"999","OBJECT_NAME":"STARLINK-1499","EPHEMERIS_TYPE":"0","NORAD_CAT_ID":"45762","BSTAR":"0.00223180000000","RA_OF_ASC_NODE":"176.9965","APOAPSIS":"515.742","PERIAPSIS":"514.682"}];
